IRIDIUM 126             
1 42809U 17039G   25355.30869047  .00000136  00000+0  41616-4 0  9991
2 42809  86.3963  68.0038 0001994 101.7151 258.4269 14.34218679444456
IRIDIUM 124             
1 42810U 17039H   25355.49611265  .00000343  00000+0  96057-4 0  9999
2 42810  86.4490   4.6458 0002346  95.0190 265.1279 14.43280223449484
IRIDIUM 128             
1 42811U 17039J   25355.36919824  .00000234  00000+0  76410-4 0  9998
2 42811  86.3972  99.5134 0002418  96.0319 264.1152 14.34218637444492
IRIDIUM 121             
1 42812U 17039K   25355.46725667  .00000176  00000+0  55924-4 0  9992
2 42812  86.3963  67.9639 0002217  94.2876 265.8574 14.34217909444359
IRIDIUM 133             
1 42955U 17061A   25355.26137575  .00000315  00000+0  10542-3 0  9999
2 42955  86.3969  99.6714 0002067  98.3081 261.8349 14.34220364429274
IRIDIUM 100             
1 42956U 17061B   25355.53410514  .00000150  00000+0  46456-4 0  9998
2 42956  86.3967  99.4804 0002088  98.3801 261.7631 14.34218052429313
IRIDIUM 122             
1 42957U 17061C   25355.36285764  .00000270  00000+0  89310-4 0  9996
2 42957  86.3968  99.5519 0002032  99.5117 260.6308 14.34218170429298
IRIDIUM 129             
1 42958U 17061D   25355.52776435  .00000105  00000+0  30509-4 0  9998
2 42958  86.3978  99.5479 0001711  93.2300 266.9092 14.34216163429337
